$$SOE
2459580.500000000, A.D. 2022-Jan-01 00:00:00.0000, 1.732631828785773E+08, 3.314051195632223E+08, -7.261680890341337E+07,
2459587.500000000, A.D. 2022-Jan-08 00:00:00.0000, 1.645675168659038E+08, 3.388479347415023E+08, -7.211121755565211E+07,
2459594.500000000, A.D. 2022-Jan-15 00:00:00.0000, 1.557301983579983E+08, 3.459991794578087E+08, -7.154357199023469E+07,
2459601.500000000, A.D. 2022-Jan-22 00:00:00.0000, 1.467615026939151E+08, 3.528586258537862E+08, -7.091558658404571E+07,
2459608.500000000, A.D. 2022-Jan-29 00:00:00.0000, 1.376714365347476E+08, 3.594263540072482E+08, -7.022896971744916E+07,
2459615.500000000, A.D. 2022-Feb-05 00:00:00.0000, 1.284697357804138E+08, 3.657027287956123E+08, -6.948542071942148E+07,
2459622.500000000, A.D. 2022-Feb-12 00:00:00.0000, 1.191658667397364E+08, 3.716883768714052E+08, -6.868662743549950E+07,
2459629.500000000, A.D. 2022-Feb-19 00:00:00.0000, 1.097690290935856E+08, 3.773841661048225E+08, -6.783426407862179E+07,
2459636.500000000, A.D. 2022-Feb-26 00:00:00.0000, 1.002881592122987E+08, 3.827911867467326E+08, -6.692998927652489E+07,
2459643.500000000, A.D. 2022-Mar-05 00:00:00.0000, 9.073193387019821E+07, 3.879107336674193E+08, -6.597544435738172E+07,
2459650.500000000, A.D. 2022-Mar-12 00:00:00.0000, 8.110877447400008E+07, 3.927442895731681E+08, -6.497225187767100E+07,
2459657.500000000, A.D. 2022-Mar-19 00:00:00.0000, 7.142685178149992E+07, 3.972935091926265E+08, -6.392201437605101E+07,
2459664.500000000, A.D. 2022-Mar-26 00:00:00.0000, 6.169409104774566E+07, 4.015602043878820E+08, -6.282631333651164E+07,
2459671.500000000, A.D. 2022-Apr-02 00:00:00.0000, 5.191817759002397E+07, 4.055463300932136E+08, -6.168670835349107E+07,
2459678.500000000, A.D. 2022-Apr-09 00:00:00.0000, 4.210656297519825E+07, 4.092539710440278E+08, -6.050473650661880E+07,
2459685.500000000, A.D. 2022-Apr-16 00:00:00.0000, 3.226647212558522E+07, 4.126853299079626E+08, -5.928191190893559E+07,
2459692.500000000, A.D. 2022-Apr-23 00:00:00.0000, 2.240491002199517E+07, 4.158427178603211E+08, -5.801972520950522E+07,
2459699.500000000, A.D. 2022-Apr-30 00:00:00.0000, 1.252866608780465E+07, 4.187285453124861E+08, -5.671964304803817E+07,
2459706.500000000, A.D. 2022-May-07 00:00:00.0000, 2.644319272196442E+06, 4.213453107750183E+08, -5.538310789011082E+07,
2459713.500000000, A.D. 2022-May-14 00:00:00.0000, -7.241754815600355E+06, 4.236955908560195E+08, -5.401153811167529E+07,
2459720.500000000, A.D. 2022-May-21 00:00:00.0000, -1.712337678181228E+07, 4.257820321140442E+08, -5.260632807444496E+07,
2459727.500000000, A.D. 2022-May-28 00:00:00.0000, -2.699455683918281E+07, 4.276073437662247E+08, -5.116884821640970E+07,
2459734.500000000, A.D. 2022-Jun-04 00:00:00.0000, -3.684948846044979E+07, 4.291742909005935E+08, -4.970044519931495E+07,
2459741.500000000, A.D. 2022-Jun-11 00:00:00.0000, -4.668254216990166E+07, 4.304856881587593E+08, -4.820244211801231E+07,
2459748.500000000, A.D. 2022-Jun-18 00:00:00.0000, -5.648825945142638E+07, 4.315443938679012E+08, -4.667613876671104E+07,
2459755.500000000, A.D. 2022-Jun-25 00:00:00.0000, -6.626134675794716E+07, 4.323533045562153E+08, -4.512281196075243E+07,
2459762.500000000, A.D. 2022-Jul-02 00:00:00.0000, -7.599666950018384E+07, 4.329153497549847E+08, -4.354371592537569E+07,
2459769.500000000, A.D. 2022-Jul-09 00:00:00.0000, -8.568924563455971E+07, 4.332334872349460E+08, -4.194008276719786E+07,
2459776.500000000, A.D. 2022-Jul-16 00:00:00.0000, -9.533423891389063E+07, 4.333106997330154E+08, -4.031312292999819E+07,
2459783.500000000, A.D. 2022-Jul-23 00:00:00.0000, -1.049269540047182E+08, 4.331499932225718E+08, -3.866402542260581E+07,
2459790.500000000, A.D. 2022-Jul-30 00:00:00.0000, -1.144628333899163E+08, 4.327543933469563E+08, -3.699395809604774E+07,
2459797.500000000, A.D. 2022-Aug-06 00:00:00.0000, -1.239374524624308E+08, 4.321269406391317E+08, -3.530406824271105E+07,
2459804.500000000, A.D. 2022-Aug-13 00:00:00.0000, -1.333465136362479E+08, 4.312706872627286E+08, -3.359548321403874E+07,
2459811.500000000, A.D. 2022-Aug-20 00:00:00.0000, -1.426858410427647E+08, 4.301886947510765E+08, -3.186931095092370E+07,
2459818.500000000, A.D. 2022-Aug-27 00:00:00.0000, -1.519513757430356E+08, 4.288840319958942E+08, -3.012664048905818E+07,
2459825.500000000, A.D. 2022-Sep-03 00:00:00.0000, -1.611391712075891E+08, 4.273597733543164E+08, -2.836854246802735E+07,
2459832.500000000, A.D. 2022-Sep-10 00:00:00.0000, -1.702453889741555E+08, 4.256189968796947E+08, -2.659606964810970E+07,
2459839.500000000, A.D. 2022-Sep-17 00:00:00.0000, -1.792662944544294E+08, 4.236647826589473E+08, -2.481025743597348E+07,
2459846.500000000, A.D. 2022-Sep-24 00:00:00.0000, -1.881982528289843E+08, 4.215002111926682E+08, -2.301212442783019E+07,
2459853.500000000, A.D. 2022-Oct-01 00:00:00.0000, -1.970377247884057E+08, 4.191283617840842E+08, -2.120267299296764E+07,
2459860.500000000, A.D. 2022-Oct-08 00:00:00.0000, -2.057812617104682E+08, 4.165523114476141E+08, -1.938288989150777E+07,
2459867.500000000, A.D. 2022-Oct-15 00:00:00.0000, -2.144255012022542E+08, 4.137751355257052E+08, -1.755374674224854E+07,
2459874.500000000, A.D. 2022-Oct-22 00:00:00.0000, -2.229671651846442E+08, 4.107999083203883E+08, -1.571620027755871E+07,
2459881.500000000, A.D. 2022-Oct-29 00:00:00.0000, -2.314030580158651E+08, 4.076297011338987E+08, -1.387119282543367E+07,
2459888.500000000, A.D. 2022-Nov-05 00:00:00.0000, -2.397300625523850E+08, 4.042675804476680E+08, -1.201965298650604E+07,
2459895.500000000, A.D. 2022-Nov-12 00:00:00.0000, -2.479451361103144E+08, 4.007166074995883E+08, -1.016249622218052E+07,
2459902.500000000, A.D. 2022-Nov-19 00:00:00.0000, -2.560453070429218E+08, 3.969798382983564E+08, -8.300625365716189E+06,
2459909.500000000, A.D. 2022-Nov-26 00:00:00.0000, -2.640276716682092E+08, 3.930603236697778E+08, -6.434931112445682E+06,
2459916.500000000, A.D. 2022-Dec-03 00:00:00.0000, -2.718893913772020E+08, 3.889611093163418E+08, -4.566292505024850E+06,
2459923.500000000, A.D. 2022-Dec-10 00:00:00.0000, -2.796276898742910E+08, 3.846852359024439E+08, -2.695577416152269E+06,
2459930.500000000, A.D. 2022-Dec-17 00:00:00.0000, -2.872398505217918E+08, 3.802357391346031E+08, -8.236430328838229E+05,
2459937.500000000, A.D. 2022-Dec-24 00:00:00.0000, -2.947232136762128E+08, 3.756156497656870E+08, 1.048663642213196E+06,
2459944.500000000, A.D. 2022-Dec-31 00:00:00.0000, -3.020751736554950E+08, 3.708279936258754E+08, 2.920505249214143E+06,
2459951.500000000, A.D. 2023-Jan-07 00:00:00.0000, -3.092931752117584E+08, 3.658757926384101E+08, 4.791053555822149E+06,
2459958.500000000, A.D. 2023-Jan-14 00:00:00.0000, -3.163747114744036E+08, 3.607620673138691E+08, 6.659489190240890E+06,
2459965.500000000, A.D. 2023-Jan-21 00:00:00.0000, -3.233173240047878E+08, 3.554898375481845E+08, 8.525001421828672E+06,
2459972.500000000, A.D. 2023-Jan-28 00:00:00.0000, -3.301186012892501E+08, 3.500621215242372E+08, 1.038678763733353E+07,
2459979.500000000, A.D. 2023-Feb-04 00:00:00.0000, -3.367761758765355E+08, 3.444819357397557E+08, 1.224405277932924E+07,
2459986.500000000, A.D. 2023-Feb-11 00:00:00.0000, -3.432877219535400E+08, 3.387522959657779E+08, 1.409600889552946E+07,
2459993.500000000, A.D. 2023-Feb-18 00:00:00.0000, -3.496509534200817E+08, 3.328762183105003E+08, 1.594187473741084E+07,
2460000.500000000, A.D. 2023-Feb-25 00:00:00.0000, -3.558636221975108E+08, 3.268567202241864E+08, 1.778087537080865E+07,
2460007.500000000, A.D. 2023-Mar-04 00:00:00.0000, -3.619235166673170E+08, 3.206968214618899E+08, 1.961224179066744E+07,
2460014.500000000, A.D. 2023-Mar-11 00:00:00.0000, -3.678284602098358E+08, 3.143995450032215E+08, 2.143521053744368E+07,
2460021.500000000, A.D. 2023-Mar-18 00:00:00.0000, -3.735763097947611E+08, 3.079679178790159E+08, 2.324902330693747E+07,
2460028.500000000, A.D. 2023-Mar-25 00:00:00.0000, -3.791649544187912E+08, 3.014049718573529E+08, 2.505292653123218E+07,
2460035.500000000, A.D. 2023-Apr-01 00:00:00.0000, -3.845923129644186E+08, 2.947137443820559E+08, 2.684617092414244E+07,
2460042.500000000, A.D. 2023-Apr-08 00:00:00.0000, -3.898563320941473E+08, 2.878972809884620E+08, 2.862801114789161E+07,
2460049.500000000, A.D. 2023-Apr-15 00:00:00.0000, -3.949549865166284E+08, 2.809586380911204E+08, 3.039770572512034E+07,
2460056.500000000, A.D. 2023-Apr-22 00:00:00.0000, -3.998862798131157E+08, 2.739008830927652E+08, 3.215451678094299E+07,
2460063.500000000, A.D. 2023-Apr-29 00:00:00.0000, -4.046482430847135E+08, 2.667270940659608E+08, 3.389770954816610E+07,
2460070.500000000, A.D. 2023-May-06 00:00:00.0000, -4.092389331787692E+08, 2.594403607859648E+08, 3.562655194235946E+07,
2460077.500000000, A.D. 2023-May-13 00:00:00.0000, -4.136564314712583E+08, 2.520437862202685E+08, 3.734031422300455E+07,
2460084.500000000, A.D. 2023-May-20 00:00:00.0000, -4.178988429712328E+08, 2.445404879832112E+08, 3.903826867879198E+07,
2460091.500000000, A.D. 2023-May-27 00:00:00.0000, -4.219642955547602E+08, 2.369335997261139E+08, 4.071968931666440E+07,
2460098.500000000, A.D. 2023-Jun-03 00:00:00.0000, -4.258509392720748E+08, 2.292262724897563E+08, 4.238385155125354E+07,
2460105.500000000, A.D. 2023-Jun-10 00:00:00.0000, -4.295569457051148E+08, 2.214216760068868E+08, 4.403003189122856E+07,
2460112.500000000, A.D. 2023-Jun-17 00:00:00.0000, -4.330805072867665E+08, 2.135229998960829E+08, 4.565750760927691E+07,
2460119.500000000, A.D. 2023-Jun-24 00:00:00.0000, -4.364198362618099E+08, 2.055334548035938E+08, 4.726555637068583E+07,
2460126.500000000, A.D. 2023-Jul-01 00:00:00.0000, -4.395731630364254E+08, 1.974562743217493E+08, 4.885345586474954E+07,
2460133.500000000, A.D. 2023-Jul-08 00:00:00.0000, -4.425387355911705E+08, 1.892947185062341E+08, 5.042048365957080E+07,
2460140.500000000, A.D. 2023-Jul-15 00:00:00.0000, -4.453148212363881E+08, 1.810520761636192E+08, 5.196591716617779E+07,
2460147.500000000, A.D. 2023-Jul-22 00:00:00.0000, -4.478997071894237E+08, 1.727316648766816E+08, 5.348903330452736E+07,
$$EOE